YAOGAN-39 03A           
1 57986U 23152A   26176.58559924  .00007995  00000+0  33426-3 0  9997
2 57986  35.0000 219.6998 0004808 239.7720 120.2519 15.22869598151720
YAOGAN-39 03B           
1 57988U 23152C   26177.15277590  .00005490  00000+0  27561-3 0  9990
2 57988  34.9892 240.3081 0027299 304.4259  55.3874 15.16339351151554
YAOGAN-39 03C           
1 57990U 23152E   26177.14883728  .00004671  00000+0  23618-3 0  9997
2 57990  34.9893 240.2497 0018045 219.7323 140.2067 15.16320570151525
STARLINK-30537          
1 57991U 23153A   26177.01064529  .00000711  00000+0  35359-4 0  9992
2 57991  43.0030 175.2382 0001099 263.3940  96.6787 15.27582837151364
STARLINK-30534          
1 57992U 23153B   26176.47342022  .00001085  00000+0  48963-4 0  9999
2 57992  43.0027 178.0825 0001942 283.7895  76.2741 15.27576722151287
STARLINK-30536          
1 57993U 23153C   26177.01449953  .00000429  00000+0  25110-4 0  9992
2 57993  43.0005 175.2651 0001438 275.2597  84.8091 15.27578965151469
STARLINK-30538          
1 57994U 23153D   26176.30295398  .00000691  00000+0  34616-4 0  9998
2 57994  42.9995 179.3747 0001275 275.2266  84.8440 15.27582668151259
STARLINK-30517          
1 57995U 23153E   26176.44786770  .00000399  00000+0  24028-4 0  9994
2 57995  43.0018 178.7445 0001329 261.3977  98.6724 15.27576555151370
STARLINK-30523          
1 57997U 23153G   26176.49526391  .00000340  00000+0  21886-4 0  9997
2 57997  42.9999 178.2436 0001052 265.6846  94.3885 15.27577713151387
STARLINK-30531          
1 57998U 23153H   26177.00807310  .00000492  00000+0  27421-4 0  9998
2 57998  43.0007 175.2133 0001406 260.0981  99.9711 15.27579590151466
STARLINK-30552          
1 57999U 23153J   26176.98252919  .00004393  00000+0  16908-3 0  9995
2 57999  43.0030 175.8803 0001548 290.7421  69.3264 15.27580944151457
STARLINK-30545          
1 58000U 23153K   26176.98622846  .00000621  00000+0  32101-4 0  9993
2 58000  43.0035 175.0522 0001752 277.9009  82.1644 15.27580341151469
STARLINK-30535          
1 58001U 23153L   26176.46699594  .00000542  00000+0  29247-4 0  9990
2 58001  43.0042 178.0324 0001781 269.8834  90.1814 15.27574380151384
STARLINK-30540          
1 58002U 23153M   26177.00035917  .00001656  00000+0  69698-4 0  9996
2 58002  43.0012 175.1396 0001410 265.1985  94.8705 15.27583706151364
STARLINK-30539          
1 58004U 23153P   26176.99779601  .00000383  00000+0  23464-4 0  9997
2 58004  43.0017 175.1376 0001516 272.1252  87.9426 15.27577586151453
STARLINK-30530          
1 58005U 23153Q   26177.00550242  .00000875  00000+0  41334-4 0  9991
2 58005  43.0012 175.1863 0001460 268.0859  91.9825 15.27579915151462
STARLINK-30526          
1 58006U 23153R   26177.18597492  .00006078  00000+0  20601-3 0  9993
2 58006  43.0032 147.9353 0003445 152.2392 207.8646 15.31233329151793
STARLINK-30527          
1 58007U 23153S   26176.66877313  .00016175  00000+0  59733-3 0  9996
2 58007  43.0049 308.5729 0000479 262.2665  97.8132 15.27508296153975
STARLINK-30522          
1 58008U 23153T   26175.73246891  .00000198  00000+0  16708-4 0  9999
2 58008  43.0036 182.8229 0001310 263.9928  96.0774 15.27577010151268
STARLINK-30486          
1 58009U 23153U   26177.00164619  .00001467  00000+0  62833-4 0  9999
2 58009  43.0009 175.1550 0001489 271.9337  88.1344 15.27583788151366
STARLINK-30520          
1 58010U 23153V   26177.01193396  .00002843  00000+0  11278-3 0  9991
2 58010  43.0008 175.2188 0001254 265.2586  94.8122 15.27581852151365
STARLINK-30497          
1 58011U 23153W   26176.46956301  .00000651  00000+0  33196-4 0  9992
2 58011  43.0029 178.0404 0001495 277.1786  82.8896 15.27579696151382
STARLINK-30525          
1 58012U 23153X   26177.00421986  .00000820  00000+0  39325-4 0  9998
2 58012  43.0006 175.1660 0001077 268.0122  92.0607 15.27577254151469
THEOS-2 (T2V)           
1 58016U 23155A   26177.16178500  .00000743  00000+0  10086-3 0  9998
2 58016  97.8875 248.0100 0001396  92.7101 267.4271 14.81752950146754
FORMOSAT-7R (TRITON)    
1 58017U 23155B   26177.16423588  .00001604  00000+0  16737-3 0  9994
2 58017  97.8357 258.4949 0002473  76.5351 283.6142 14.91141960147561
ANSER FOLLOWER 2        
1 58018U 23155C   26177.23188334  .00021347  00000+0  41867-3 0  9998
2 58018  97.5542 266.7439 0002100 158.9934 201.1402 15.47375829150350
ANSER FOLLOWER 1        
1 58019U 23155D   26177.22790756  .00070150  00000+0  13258-2 0  9993
2 58019  97.5527 267.3786 0000826 157.5113 202.6173 15.48180118150350
NESS                    
1 58020U 23155E   26177.16086297  .00018779  00000+0  63931-3 0  9999
2 58020  97.5916 263.1478 0006749 159.2550 200.8965 15.30440672149868
CSC-2                   
1 58021U 23155F   26176.68189367  .00011926  00000+0  52569-3 0  9990
2 58021  97.5428 253.3703 0004900 189.3280 170.7865 15.21945973149475
CSC-1                   
1 58022U 23155G   26177.18880205  .00003338  00000+0  20487-3 0  9998
2 58022  97.5367 246.5293 0007586 198.0695 162.0266 15.10772016149097
