OBJECT_NAME,OBJECT_ID,EPOCH,MEAN_MOTION,ECCENTRICITY,INCLINATION,RA_OF_ASC_NODE,ARG_OF_PERICENTER,MEAN_ANOMALY,EPHEMERIS_TYPE,CLASSIFICATION_TYPE,NORAD_CAT_ID,ELEMENT_SET_NO,REV_AT_EPOCH,BSTAR,MEAN_MOTION_DOT,MEAN_MOTION_DDOT
YAOGAN-39 03A,2023-152A,2026-06-25T14:03:15.774336,15.22869598,.0004808,35.0000,219.6998,239.7720,120.2519,0,U,57986,999,15172,.33426E-3,.7995E-4,0
YAOGAN-39 03B,2023-152C,2026-06-26T03:39:59.837760,15.16339351,.0027299,34.9892,240.3081,304.4259,55.3874,0,U,57988,999,15155,.27561E-3,.549E-4,0
YAOGAN-39 03C,2023-152E,2026-06-26T03:34:19.540992,15.16320570,.0018045,34.9893,240.2497,219.7323,140.2067,0,U,57990,999,15152,.23618E-3,.4671E-4,0
STARLINK-30537,2023-153A,2026-06-26T00:15:19.753056,15.27582837,.0001099,43.0030,175.2382,263.3940,96.6787,0,U,57991,999,15136,.35359E-4,.711E-5,0
STARLINK-30534,2023-153B,2026-06-25T11:21:43.507008,15.27576722,.0001942,43.0027,178.0825,283.7895,76.2741,0,U,57992,999,15128,.48963E-4,.1085E-4,0
STARLINK-30536,2023-153C,2026-06-26T00:20:52.759392,15.27578965,.0001438,43.0005,175.2651,275.2597,84.8091,0,U,57993,999,15146,.2511E-4,.429E-5,0
STARLINK-30538,2023-153D,2026-06-25T07:16:15.223872,15.27582668,.0001275,42.9995,179.3747,275.2266,84.8440,0,U,57994,999,15125,.34616E-4,.691E-5,0
STARLINK-30517,2023-153E,2026-06-25T10:44:55.769280,15.27576555,.0001329,43.0018,178.7445,261.3977,98.6724,0,U,57995,999,15137,.24028E-4,.399E-5,0
STARLINK-30523,2023-153G,2026-06-25T11:53:10.801824,15.27577713,.0001052,42.9999,178.2436,265.6846,94.3885,0,U,57997,999,15138,.21886E-4,.34E-5,0
STARLINK-30531,2023-153H,2026-06-26T00:11:37.515840,15.27579590,.0001406,43.0007,175.2133,260.0981,99.9711,0,U,57998,999,15146,.27421E-4,.492E-5,0
STARLINK-30552,2023-153J,2026-06-25T23:34:50.522016,15.27580944,.0001548,43.0030,175.8803,290.7421,69.3264,0,U,57999,999,15145,.16908E-3,.4393E-4,0
STARLINK-30545,2023-153K,2026-06-25T23:40:10.138944,15.27580341,.0001752,43.0035,175.0522,277.9009,82.1644,0,U,58000,999,15146,.32101E-4,.621E-5,0
STARLINK-30535,2023-153L,2026-06-25T11:12:28.449216,15.27574380,.0001781,43.0042,178.0324,269.8834,90.1814,0,U,58001,999,15138,.29247E-4,.542E-5,0
STARLINK-30540,2023-153M,2026-06-26T00:00:31.032288,15.27583706,.000141,43.0012,175.1396,265.1985,94.8705,0,U,58002,999,15136,.69698E-4,.1656E-4,0
STARLINK-30539,2023-153P,2026-06-25T23:56:49.575264,15.27577586,.0001516,43.0017,175.1376,272.1252,87.9426,0,U,58004,999,15145,.23464E-4,.383E-5,0
STARLINK-30530,2023-153Q,2026-06-26T00:07:55.409088,15.27579915,.000146,43.0012,175.1863,268.0859,91.9825,0,U,58005,999,15146,.41334E-4,.875E-5,0
STARLINK-30526,2023-153R,2026-06-26T04:27:48.233088,15.31233329,.0003445,43.0032,147.9353,152.2392,207.8646,0,U,58006,999,15179,.20601E-3,.6078E-4,0
STARLINK-30527,2023-153S,2026-06-25T16:03:01.998432,15.27508296,.0000479,43.0049,308.5729,262.2665,97.8132,0,U,58007,999,15397,.59733E-3,.16175E-3,0
STARLINK-30522,2023-153T,2026-06-24T17:34:45.313824,15.27577010,.00013106,43.0036,182.8229,263.9928,96.0774,0,U,58008,999,15126,.16707779E-4,.198E-5,0
STARLINK-30486,2023-153U,2026-06-26T00:02:22.230816,15.27583788,.0001489,43.0009,175.1550,271.9337,88.1344,0,U,58009,999,15136,.62833E-4,.1467E-4,0
STARLINK-30520,2023-153V,2026-06-26T00:17:11.094144,15.27581852,.0001254,43.0008,175.2188,265.2586,94.8122,0,U,58010,999,15136,.11278E-3,.2843E-4,0
STARLINK-30497,2023-153W,2026-06-25T11:16:10.244064,15.27579696,.0001495,43.0029,178.0404,277.1786,82.8896,0,U,58011,999,15138,.33196E-4,.651E-5,0
STARLINK-30525,2023-153X,2026-06-26T00:06:04.595904,15.27577254,.0001077,43.0006,175.1660,268.0122,92.0607,0,U,58012,999,15146,.39325E-4,.82E-5,0
THEOS-2 (T2V),2023-155A,2026-06-26T03:52:58.224000,14.81752950,.0001396,97.8875,248.0100,92.7101,267.4271,0,U,58016,999,14675,.10086E-3,.743E-5,0
FORMOSAT-7R (TRITON),2023-155B,2026-06-26T03:56:29.980032,14.91141960,.0002473,97.8357,258.4949,76.5351,283.6142,0,U,58017,999,14756,.16737E-3,.1604E-4,0
ANSER FOLLOWER 2,2023-155C,2026-06-26T05:33:54.720576,15.47375829,.00021,97.5542,266.7439,158.9934,201.1402,0,U,58018,999,15035,.41867E-3,.21347E-3,0
ANSER FOLLOWER 1,2023-155D,2026-06-26T05:28:11.213184,15.48180118,.0000826,97.5527,267.3786,157.5113,202.6173,0,U,58019,999,15035,.13258E-2,.7015E-3,0
NESS,2023-155E,2026-06-26T03:51:38.560608,15.30440672,.0006749,97.5916,263.1478,159.2550,200.8965,0,U,58020,999,14986,.63931E-3,.18779E-3,0
CSC-2,2023-155F,2026-06-25T16:21:55.613088,15.21945973,.00049,97.5428,253.3703,189.3280,170.7865,0,U,58021,999,14947,.52569E-3,.11926E-3,0
CSC-1,2023-155G,2026-06-26T04:31:52.497120,15.10772016,.0007586,97.5367,246.5293,198.0695,162.0266,0,U,58022,999,14909,.20487E-3,.3338E-4,0
